STARLINK-37537          
1 69420U 26126A   26183.54730088  .00191444  00000+0  12523-2 0  9990
2 69420  97.2863  44.2757 0000490 117.7676 242.3639 15.75255792  5164
STARLINK-37585          
1 69421U 26126B   26183.60024110  .00149279  00000+0  98228-3 0  9996
2 69421  97.2844  44.3585 0000789 119.3909 240.7435 15.75237877  5173
STARLINK-37573          
1 69422U 26126C   26183.55047704  .00219234  00000+0  14289-2 0  9998
2 69422  97.2844  44.2724 0001434 112.0220 248.1198 15.75260529  5169
STARLINK-37820          
1 69423U 26126D   26183.69236194  .00274231  00000+0  17721-2 0  9999
2 69423  97.2847  44.5400 0001070 105.5695 254.5689 15.75306653  5194
STARLINK-37822          
1 69424U 26126E   26183.13684838  .00218310  00000+0  14274-2 0  9997
2 69424  97.2831  43.9178 0001569  84.2717 275.8727 15.75190666  5109
STARLINK-37836          
1 69425U 26126F   26183.66668980 -.00096186  00000+0 -64993-3 0  9997
2 69425  97.2833  44.5220 0001505  93.8869 136.7651 15.75237157  5198
STARLINK-37850          
1 69426U 26126G   26183.69447802  .00192179  00000+0  12549-2 0  9995
2 69426  97.2841  44.5376 0002505 111.5018 248.6514 15.75293137  5242
STARLINK-37823          
1 69427U 26126H   26183.58789122  .00163037  00000+0  10701-2 0  9997
2 69427  97.2841  44.3767 0002489 100.6347 259.5199 15.75254776  5178
STARLINK-37834          
1 69428U 26126J   26183.34225235  .00270187  00000+0  17505-2 0  9996
2 69428  97.2844  44.0979 0001526  84.8606 275.2833 15.75257949  5137
STARLINK-37857          
1 69429U 26126K   26183.58506799  .00271267  00000+0  17547-2 0  9996
2 69429  97.2834  44.3798 0001884 127.9595 232.1841 15.75291679  5175
STARLINK-37866          
1 69430U 26126L   26183.66668980 -.00089321  00000+0 -60306-3 0  9990
2 69430  97.2837  44.5270 0001335  95.1180 147.5360 15.75235301  5247
STARLINK-37555          
1 69431U 26126M   26183.57306990  .00304016  00000+0  19575-2 0  9991
2 69431  97.2837  44.3964 0002219 126.4985 233.6484 15.75306890  5223
STARLINK-37870          
1 69432U 26126N   26183.69659675  .00213412  00000+0  13946-2 0  9991
2 69432  97.2822  44.5344 0001378 330.6313  29.4874 15.75217358  5191
STARLINK-37872          
1 69433U 26126P   26183.66668980 -.00134439  00000+0 -91078-3 0  9994
2 69433  97.2839  44.5410 0001971  88.2420 188.3524 15.75286465  5190
STARLINK-37815          
1 69434U 26126Q   26183.15943019  .00179838  00000+0  11802-2 0  9994
2 69434  97.2846  43.8868 0001496  84.7350 275.4086 15.75213213  5106
STARLINK-37801          
1 69435U 26126R   26183.33590095  .00191225  00000+0  12527-2 0  9996
2 69435  97.2856  44.1066 0001715  81.8992 278.2468 15.75220846  5189
STARLINK-37800          
1 69436U 26126S   26183.59212582  .00230966  00000+0  15033-2 0  9998
2 69436  97.2835  44.3701 0001870  96.1912 263.9567 15.75260544  5177
STARLINK-37792          
1 69437U 26126T   26183.54990432  .00180513  00000+0  95915-3 0  9991
2 69437  97.2846  44.4283 0002129 145.9343 214.2062 15.79987436  5220
STARLINK-37783          
1 69438U 26126U   26183.66668980 -.00104743  00000+0 -70845-3 0  9993
2 69438  97.2837  44.5367 0001428  85.4967 179.1498 15.75240107  5243
STARLINK-37771          
1 69439U 26126V   26183.54482920  .00205298  00000+0  13411-2 0  9999
2 69439  97.2850  44.2800 0001825 185.0355 175.0892 15.75248300  5164
STARLINK-37747          
1 69440U 26126W   26183.70436110  .00151267  00000+0  99530-3 0  9992
2 69440  97.2831  44.5232 0001638 103.6549 256.4899 15.75233099  5193
STARLINK-37629          
1 69443U 26127A   26183.46979756  .00211601  00000+0  13439-2 0  9999
2 69443  53.1582 186.4605 0001524 101.8082 258.3109 15.75347182  3817
STARLINK-37509          
1 69444U 26127B   26183.14837737  .00215212  00000+0  13685-2 0  9992
2 69444  53.1593 188.0106 0002791  34.6719 325.4483 15.75307578  3761
STARLINK-37641          
1 69445U 26127C   26183.70543656  .00206086  00000+0  13146-2 0  9990
2 69445  53.1573 185.0785 0001755  71.5472 288.5739 15.75264357  3855
STARLINK-37522          
1 69446U 26127D   26183.46527002  .00160123  00000+0  10268-2 0  9994
2 69446  53.1597 186.4301 0001193  88.4980 271.6177 15.75289113  3810
STARLINK-37640          
1 69447U 26127E   26183.50148494  .00134801  00000+0  86785-3 0  9996
2 69447  53.1590 185.9341 0001622  67.4589 292.6603 15.75284685  3828
STARLINK-37572          
1 69448U 26127F   26183.71030399  .00174045  00000+0  11132-2 0  9991
2 69448  53.1587 185.1100 0001314  96.0218 264.0952 15.75302675  3858
STARLINK-37643          
1 69449U 26127G   26183.39761693  .00192576  00000+0  12298-2 0  9997
2 69449  53.1595 186.7169 0001596  82.4022 277.7180 15.75280533  3801
STARLINK-37601          
1 69450U 26127H   26183.52417785  .00164873  00000+0  10567-2 0  9990
2 69450  53.1597 186.0833 0001360 105.1460 254.9711 15.75285569  3827
STARLINK-37578          
1 69451U 26127J   26183.57400845  .00156592  00000+0  10046-2 0  9996
2 69451  53.1560 185.6765 0001546  65.4366 294.6815 15.75290967  3831
